AL MUNTHER              
1 63240U 25052AG  26068.64540749  .00017933  00000+0  65015-3 0  9992
2 63240  97.4001 323.9152 0008027 130.7043 229.4895 15.28381521 54798
STARLINK-33802          
1 64392U 25127Y   26068.30004187  .00016788  00000+0  61842-3 0  9999
2 64392  43.0050 182.3191 0002292 253.0323 107.0277 15.27567178 42454
